HST                     
1 20580U 90037B   26068.15977042  .00009063  00000+0  30023-3 0  9999
2 20580  28.4717  43.6133 0001837 120.9992 239.0785 15.29473555773239
STARLINK-30612          
1 58106U 23161K   26068.50022727  .00000050  00000+0  13796-4 0  9994
2 58106  53.1594 153.3961 0000947  86.5768 273.5341 15.30186035134574
